TRANSPORTER-16 OBJECT AB
1 68441U 26067AB  26104.14127564  .00017581  00000+0  87299-3 0  9996
2 68441  97.4467  63.5509 0001313 346.5728  13.5470 15.17741518  2229
