{
  "norad_id": 68441,
  "name": "TRANSPORTER-16 OBJECT AB",
  "history": [
    {
      "epoch": "2026-04-14T03:23:26.215296Z",
      "apogee_km": 513.5728394965208,
      "perigee_km": 511.7633140833559,
      "latitude_deg": -5.544758714211363e-05,
      "longitude_deg": 170.36971573750182,
      "height_km": 514.8743978559805,
      "semi_major_axis_km": 6890.805076789938,
      "eccentricity": 0.0001313,
      "inclination_deg": 97.4467,
      "raan_deg": 63.5509,
      "arg_perigee_deg": 346.5728,
      "mean_anomaly_deg": 13.547,
      "mean_motion_rev_day": 15.17741518
    }
  ]
}